OBJECT_NAME,OBJECT_ID,EPOCH,MEAN_MOTION,ECCENTRICITY,INCLINATION,RA_OF_ASC_NODE,ARG_OF_PERICENTER,MEAN_ANOMALY,EPHEMERIS_TYPE,CLASSIFICATION_TYPE,NORAD_CAT_ID,ELEMENT_SET_NO,REV_AT_EPOCH,BSTAR,MEAN_MOTION_DOT,MEAN_MOTION_DDOT
GOSAT-GW (IBUKI GW),2025-141A,2026-07-15T19:49:57.713088,14.67554638,.0001438,98.0565,133.6781,85.0539,275.0830,0,U,64694,999,5604,.5559E-4,.268E-5,0
IONOSFERA-M 3,2025-155A,2026-07-15T21:27:20.869920,14.21490878,.0002309,98.6040,158.0789,111.5380,248.6043,0,U,64876,999,5048,.20836E-4,.3E-7,0
IONOSFERA-M 4,2025-155B,2026-07-15T20:36:05.351328,14.21493296,.0001827,98.6039,157.9614,98.9490,261.1895,0,U,64877,999,5047,.22383E-4,.6E-7,0
MICROCARB,2025-156A,2026-07-15T05:03:32.344992,14.72885114,.00176275,98.0075,272.9127,170.7352,189.4185,0,U,64899,999,5209,.47642611E-4,.255E-5,0
CO3D 3,2025-156B,2026-07-15T19:41:35.390400,15.20194707,.0001754,97.4336,275.1020,94.3780,265.7656,0,U,64900,999,5388,.10706E-3,.225E-4,0
CO3D 4,2025-156C,2026-07-15T11:47:52.518912,15.20210220,.00016676,97.4336,274.7779,154.2910,205.8409,0,U,64901,999,5383,.33152549E-4,.65E-5,0
CO3D 2,2025-156D,2026-07-15T18:53:47.535936,15.20204601,.0001241,97.4337,274.9680,89.7790,270.3588,0,U,64902,999,5387,.10792E-3,.2269E-4,0
CO3D 1,2025-156E,2026-07-15T18:54:00.821664,15.20204662,.0001302,97.4336,274.9681,101.2818,258.8564,0,U,64903,999,5387,.11137E-3,.2344E-4,0
PRSC-S1,2025-164A,2026-07-15T21:39:27.162144,15.06638164,.0006819,41.1300,126.0611,202.5228,157.5287,0,U,65055,999,5276,.15199E-3,.2116E-4,0
SENTINEL-6B,2025-264A,2026-07-15T19:37:35.766912,12.80930170,.0007845,66.0413,75.7136,268.6998,91.3118,0,U,66514,999,3083,.8152E-4,-.42E-6,0
CAS500-3,2025-274F,2026-07-15T18:54:30.627072,14.88384758,.0006209,97.7437,124.1886,36.7608,323.4033,0,U,66655,999,3440,.69728E-4,.592E-5,0
CSG-3,2026-001A,2026-07-13T12:40:32.844288,14.82151371,.00015181,97.8894,17.7492,93.3222,266.8165,0,U,67304,999,2836,.2348529E-4,.135E-5,0
PRSC-E03,2026-092A,2026-07-15T16:26:44.324736,15.06810605,.0004941,38.0012,281.6164,254.1915,105.8302,0,U,68835,999,1225,.87501E-4,.1218E-4,0
CAS500-2,2026-100AK,2026-07-15T15:26:00.621600,15.20905560,.0007775,97.3865,93.9580,289.9986,70.0412,0,U,69013,999,1113,.15519E-3,.3365E-4,0
