GOSAT-GW (IBUKI GW)     
1 64694U 25141A   26196.82636242  .00000268  00000+0  55590-4 0  9992
2 64694  98.0565 133.6781 0001438  85.0539 275.0830 14.67554638 56048
IONOSFERA-M 3           
1 64876U 25155A   26196.89399155  .00000003  00000+0  20836-4 0  9997
2 64876  98.6040 158.0789 0002309 111.5380 248.6043 14.21490878 50489
IONOSFERA-M 4           
1 64877U 25155B   26196.85839527  .00000006  00000+0  22383-4 0  9998
2 64877  98.6039 157.9614 0001827  98.9490 261.1895 14.21493296 50478
MICROCARB               
1 64899U 25156A   26196.21079103  .00000255  00000+0  47643-4 0  9991
2 64899  98.0075 272.9127 0017627 170.7352 189.4185 14.72885114 52098
CO3D 3                  
1 64900U 25156B   26196.82054850  .00002250  00000+0  10706-3 0  9999
2 64900  97.4336 275.1020 0001754  94.3780 265.7656 15.20194707 53885
CO3D 4                  
1 64901U 25156C   26196.49158008  .00000650  00000+0  33153-4 0  9997
2 64901  97.4336 274.7779 0001667 154.2910 205.8409 15.20210220 53831
CO3D 2                  
1 64902U 25156D   26196.78735574  .00002269  00000+0  10792-3 0  9990
2 64902  97.4337 274.9680 0001241  89.7790 270.3588 15.20204601 53877
CO3D 1                  
1 64903U 25156E   26196.78750951  .00002344  00000+0  11137-3 0  9995
2 64903  97.4336 274.9681 0001302 101.2818 258.8564 15.20204662 53879
PRSC-S1                 
1 65055U 25164A   26196.90239771  .00002116  00000+0  15199-3 0  9998
2 65055  41.1300 126.0611 0006819 202.5228 157.5287 15.06638164 52769
SENTINEL-6B             
1 66514U 25264A   26196.81777508 -.00000042  00000+0  81520-4 0  9994
2 66514  66.0413  75.7136 0007845 268.6998  91.3118 12.80930170 30833
CAS500-3                
1 66655U 25274F   26196.78785448  .00000592  00000+0  69728-4 0  9994
2 66655  97.7437 124.1886 0006209  36.7608 323.4033 14.88384758 34409
CSG-3                   
1 67304U 26001A   26194.52815792  .00000135  00000+0  23485-4 0  9994
2 67304  97.8894  17.7492 0001518  93.3222 266.8165 14.82151371 28369
PRSC-E03                
1 68835U 26092A   26196.68523524  .00001218  00000+0  87501-4 0  9994
2 68835  38.0012 281.6164 0004941 254.1915 105.8302 15.06810605 12250
CAS500-2                
1 69013U 26100AK  26196.64306275  .00003365  00000+0  15519-3 0  9995
2 69013  97.3865  93.9580 0007775 289.9986  70.0412 15.20905560 11133
